OBJECT_NAME,OBJECT_ID,EPOCH,MEAN_MOTION,ECCENTRICITY,INCLINATION,RA_OF_ASC_NODE,ARG_OF_PERICENTER,MEAN_ANOMALY,EPHEMERIS_TYPE,CLASSIFICATION_TYPE,NORAD_CAT_ID,ELEMENT_SET_NO,REV_AT_EPOCH,BSTAR,MEAN_MOTION_DOT,MEAN_MOTION_DDOT
IRIDIUM 156,2018-061H,2026-07-14T16:13:26.484672,14.34217556,.0002091,86.3936,45.2303,92.5574,267.5861,0,U,43576,999,41731,.10887E-4,.5E-6,0
IRIDIUM 164,2018-061J,2026-07-14T15:46:02.610624,14.34218154,.0002326,86.3938,45.2792,89.3937,270.7525,0,U,43577,999,41735,.44467E-4,.144E-5,0
IRIDIUM 159,2018-061K,2026-07-14T15:00:22.457952,14.34217422,.000214,86.3935,45.2288,85.2348,274.9092,0,U,43578,999,41731,.11407E-4,.52E-6,0
IRIDIUM 180,2019-002A,2026-07-14T20:01:02.966304,14.34218371,.0002184,86.3991,342.0399,90.7998,269.3448,0,U,43922,999,39295,.32202E-4,.11E-5,0
IRIDIUM 176,2019-002B,2026-07-14T19:43:36.971616,14.72248806,.0002336,86.6111,341.9846,89.9629,270.1855,0,U,43923,999,40331,.58107E-4,.391E-5,0
IRIDIUM 168,2019-002C,2026-07-14T19:51:54.906048,14.34216549,.0002102,86.3989,342.1208,91.5276,268.6160,0,U,43924,999,39293,-.26226E-4,-.54E-6,0
IRIDIUM 173,2019-002D,2026-07-14T19:33:39.011040,14.34216482,.0002025,86.3987,342.0141,91.6884,268.4544,0,U,43925,999,39291,-.34257E-4,-.76E-6,0
IRIDIUM 169,2019-002E,2026-07-14T14:06:10.446624,14.38613118,.0001863,86.4220,13.7340,102.5988,257.5418,0,U,43926,999,39416,.257E-5,.28E-6,0
IRIDIUM 172,2019-002F,2026-07-14T19:24:31.019040,14.34217452,.0002181,86.3988,342.0241,90.2364,269.9081,0,U,43927,999,39292,-.11416E-5,.17E-6,0
IRIDIUM 175,2019-002G,2026-07-14T17:23:08.091744,14.43627085,.0005288,86.4512,279.0109,116.2044,243.9701,0,U,43928,999,40295,.46156E-4,.177E-5,0
IRIDIUM 171,2019-002H,2026-07-14T20:37:34.973184,14.34217603,.000222,86.3998,342.3121,94.9130,265.2319,0,U,43929,999,39292,.54891E-5,.35E-6,0
IRIDIUM 170,2019-002J,2026-07-14T19:52:30.064800,14.72249404,.0002267,86.6111,341.9842,86.4344,273.7132,0,U,43930,999,40332,.58545E-4,.394E-5,0
IRIDIUM 167,2019-002K,2026-07-14T20:28:26.950080,14.34217734,.0002284,86.3991,342.0283,98.6332,261.5122,0,U,43931,999,39292,.65927E-5,.38E-6,0
IRIDIUM 181,2023-068S,2026-07-14T16:47:20.985216,14.43312097,.0002407,86.4475,45.2853,83.7894,276.3581,0,U,56726,999,16640,.45734E-4,.174E-5,0
IRIDIUM 177,2023-068T,2026-07-14T07:09:14.174208,14.80029761,.00021494,86.1985,315.9197,94.6056,265.5411,0,U,56727,999,17037,.6959268E-4,.553E-5,0
IRIDIUM 174,2023-068U,2026-07-14T19:34:35.164128,14.72257985,.0001994,86.6119,342.1395,87.3380,272.8065,0,U,56728,999,17008,.60251E-4,.405E-5,0
IRIDIUM 178,2023-068V,2026-07-14T13:22:49.861920,14.80026014,.0002317,86.6535,13.9199,90.6819,269.4668,0,U,56729,999,17041,.20107E-4,.178E-5,0
IRIDIUM 179,2023-068W,2026-07-14T13:15:07.377408,14.80033444,.00023243,86.6766,22.9827,93.4133,266.7354,0,U,56730,999,17041,.18947286E-4,.17E-5,0
