IRIDIUM 156             
1 43576U 18061H   26195.67600098  .00000050  00000+0  10887-4 0  9992
2 43576  86.3936  45.2303 0002091  92.5574 267.5861 14.34217556417312
IRIDIUM 164             
1 43577U 18061J   26195.65697466  .00000144  00000+0  44467-4 0  9991
2 43577  86.3938  45.2792 0002326  89.3937 270.7525 14.34218154417357
IRIDIUM 159             
1 43578U 18061K   26195.62525993  .00000052  00000+0  11407-4 0  9990
2 43578  86.3935  45.2288 0002140  85.2348 274.9092 14.34217422417318
IRIDIUM 180             
1 43922U 19002A   26195.83406211  .00000110  00000+0  32202-4 0  9994
2 43922  86.3991 342.0399 0002184  90.7998 269.3448 14.34218371392953
IRIDIUM 176             
1 43923U 19002B   26195.82195569  .00000391  00000+0  58107-4 0  9998
2 43923  86.6111 341.9846 0002336  89.9629 270.1855 14.72248806403319
IRIDIUM 168             
1 43924U 19002C   26195.82771882 -.00000054  00000+0 -26226-4 0  9992
2 43924  86.3989 342.1208 0002102  91.5276 268.6160 14.34216549392936
IRIDIUM 173             
1 43925U 19002D   26195.81503485 -.00000076  00000+0 -34257-4 0  9991
2 43925  86.3987 342.0141 0002025  91.6884 268.4544 14.34216482392918
IRIDIUM 169             
1 43926U 19002E   26195.58762091  .00000028  00000+0  25700-5 0  9995
2 43926  86.4220  13.7340 0001863 102.5988 257.5418 14.38613118394168
IRIDIUM 172             
1 43927U 19002F   26195.80869235  .00000017  00000+0 -11416-5 0  9997
2 43927  86.3988 342.0241 0002181  90.2364 269.9081 14.34217452392924
IRIDIUM 175             
1 43928U 19002G   26195.72439921  .00000177  00000+0  46156-4 0  9998
2 43928  86.4512 279.0109 0005288 116.2044 243.9701 14.43627085402959
IRIDIUM 171             
1 43929U 19002H   26195.85943256  .00000035  00000+0  54891-5 0  9993
2 43929  86.3998 342.3121 0002220  94.9130 265.2319 14.34217603392924
IRIDIUM 170             
1 43930U 19002J   26195.82812575  .00000394  00000+0  58545-4 0  9998
2 43930  86.6111 341.9842 0002267  86.4344 273.7132 14.72249404403325
IRIDIUM 167             
1 43931U 19002K   26195.85308970  .00000038  00000+0  65927-5 0  9999
2 43931  86.3991 342.0283 0002284  98.6332 261.5122 14.34217734392927
IRIDIUM 181             
1 56726U 23068S   26195.69954844  .00000174  00000+0  45734-4 0  9995
2 56726  86.4475  45.2853 0002407  83.7894 276.3581 14.43312097166404
IRIDIUM 177             
1 56727U 23068T   26195.29808072  .00000553  00000+0  69593-4 0  9993
2 56727  86.1985 315.9197 0002149  94.6056 265.5411 14.80029761170377
IRIDIUM 174             
1 56728U 23068U   26195.81568477  .00000405  00000+0  60251-4 0  9992
2 56728  86.6119 342.1395 0001994  87.3380 272.8065 14.72257985170086
IRIDIUM 178             
1 56729U 23068V   26195.55752155  .00000178  00000+0  20107-4 0  9995
2 56729  86.6535  13.9199 0002317  90.6819 269.4668 14.80026014170412
IRIDIUM 179             
1 56730U 23068W   26195.55216872  .00000170  00000+0  18947-4 0  9999
2 56730  86.6766  22.9827 0002324  93.4133 266.7354 14.80033444170413
